TERRASAR-X              
1 31698U 07026A   26063.59288471  .00002043  00000+0  10048-3 0  9997
2 31698  97.4462  72.7879 0001849  78.4476 281.6966 15.19148874 37342
WORLDVIEW-1 (WV-1)      
1 32060U 07041A   26064.30441215  .00009872  00000+0  40493-3 0  9999
2 32060  97.3833 185.5485 0002960 148.3922 211.7494 15.24440052 27057
YAOGAN-3                
1 32289U 07055A   26064.34497189  .00004264  00000+0  44409-3 0  9993
2 32289  97.8273  95.2195 0001696  86.4557 273.6855 14.90337597990394
COSMO-SKYMED 2          
1 32376U 07059A   26064.32984589  .00000764  00000+0  10249-3 0  9993
2 32376  97.8861 249.4290 0001309  83.5304 276.6058 14.82159256986615
RADARSAT-2              
1 32382U 07061A   26064.27099172  .00000508  00000+0  21392-3 0  9999
2 32382  98.5810  72.6738 0001196  84.2187 275.9132 14.29983295951108
CARTOSAT-2A             
1 32783U 08021A   26064.27631547  .00000809  00000+0  11595-3 0  9997
2 32783  97.7785 116.4700 0013291  89.3623 270.9111 14.79090115963448
HUANJING 1A (HJ-1A)     
1 33320U 08041A   26064.25163955  .00003016  00000+0  36974-3 0  9999
2 33320  97.6626  54.1646 0020501 117.2955 243.0350 14.83703443942990
HUANJING 1B (HJ-1B)     
1 33321U 08041B   26064.31055081  .00001348  00000+0  16993-3 0  9992
2 33321  97.6471  57.6965 0036699 161.9838 198.2687 14.83088759943016
GEOEYE 1                
1 33331U 08042A   26064.24639207  .00000769  00000+0  15329-3 0  9992
2 33331  98.1213 139.4914 0004257  40.1999 319.9518 14.64760852934937
THEOS                   
1 33396U 08049A   26064.32779596 -.00000019  00000+0  10796-4 0  9998
2 33396  98.5712 124.9253 0001053  89.6695 270.4603 14.20115997903223
COSMO-SKYMED 3          
1 33412U 08054A   26064.26864352  .00004266  00000+0  29497-3 0  9995
2 33412  97.8423 281.0795 0014594 258.6337 101.3250 15.06197345941295
YAOGAN-4                
1 33446U 08061A   26064.26674531  .00001982  00000+0  25021-3 0  9999
2 33446  97.9246 358.6019 0015564  52.6056 307.6572 14.82962230930263
GOSAT (IBUKI)           
1 33492U 09002A   26063.20621588  .00000446  00000+0  87015-4 0  9999
2 33492  98.0769 175.6761 0001363  85.5243 274.6117 14.67547057916061
DEIMOS-1                
1 35681U 09041A   26064.27128433  .00000916  00000+0  14288-3 0  9996
2 35681  97.7244 226.0834 0002075 124.3332 235.8074 14.75106385891563
DUBAISAT-1              
1 35682U 09041B   26064.29897760  .00001756  00000+0  26898-3 0  9998
2 35682  97.9866 198.8101 0011325  49.4275 310.7918 14.74891955889784
OCEANSAT-2              
1 35931U 09051A   26064.25838431  .00000083  00000+0  82138-4 0  9994
2 35931  98.2273  61.5163 0017044 164.4026 195.7669 13.99636222864795
