[{"OBJECT_NAME":"TERRASAR-X","OBJECT_ID":"2007-026A","EPOCH":"2026-03-04T14:13:45.238944","MEAN_MOTION":15.19148874,"ECCENTRICITY":0.0001849,"INCLINATION":97.4462,"RA_OF_ASC_NODE":72.7879,"ARG_OF_PERICENTER":78.4476,"MEAN_ANOMALY":281.6966,"EPHEMERIS_TYPE":0,"CLASSIFICATION_TYPE":"U","NORAD_CAT_ID":31698,"ELEMENT_SET_NO":999,"REV_AT_EPOCH":3734,"BSTAR":0.00010048,"MEAN_MOTION_DOT":2.043e-5,"MEAN_MOTION_DDOT":0},{"OBJECT_NAME":"WORLDVIEW-1 (WV-1)","OBJECT_ID":"2007-041A","EPOCH":"2026-03-05T07:18:21.209760","MEAN_MOTION":15.24440052,"ECCENTRICITY":0.000296,"INCLINATION":97.3833,"RA_OF_ASC_NODE":185.5485,"ARG_OF_PERICENTER":148.3922,"MEAN_ANOMALY":211.7494,"EPHEMERIS_TYPE":0,"CLASSIFICATION_TYPE":"U","NORAD_CAT_ID":32060,"ELEMENT_SET_NO":999,"REV_AT_EPOCH":2705,"BSTAR":0.00040492605,"MEAN_MOTION_DOT":9.872e-5,"MEAN_MOTION_DDOT":0},{"OBJECT_NAME":"YAOGAN-3","OBJECT_ID":"2007-055A","EPOCH":"2026-03-05T08:16:45.571296","MEAN_MOTION":14.90337597,"ECCENTRICITY":0.00016969,"INCLINATION":97.8273,"RA_OF_ASC_NODE":95.2195,"ARG_OF_PERICENTER":86.4557,"MEAN_ANOMALY":273.6855,"EPHEMERIS_TYPE":0,"CLASSIFICATION_TYPE":"U","NORAD_CAT_ID":32289,"ELEMENT_SET_NO":999,"REV_AT_EPOCH":99039,"BSTAR":0.00044409378,"MEAN_MOTION_DOT":4.264e-5,"MEAN_MOTION_DDOT":0},{"OBJECT_NAME":"COSMO-SKYMED 2","OBJECT_ID":"2007-059A","EPOCH":"2026-03-05T07:54:58.684896","MEAN_MOTION":14.82159256,"ECCENTRICITY":0.00013091,"INCLINATION":97.8861,"RA_OF_ASC_NODE":249.429,"ARG_OF_PERICENTER":83.5304,"MEAN_ANOMALY":276.6058,"EPHEMERIS_TYPE":0,"CLASSIFICATION_TYPE":"U","NORAD_CAT_ID":32376,"ELEMENT_SET_NO":999,"REV_AT_EPOCH":98661,"BSTAR":0.00010248806,"MEAN_MOTION_DOT":7.64e-6,"MEAN_MOTION_DDOT":0},{"OBJECT_NAME":"RADARSAT-2","OBJECT_ID":"2007-061A","EPOCH":"2026-03-05T06:30:13.684608","MEAN_MOTION":14.29983295,"ECCENTRICITY":0.00011964,"INCLINATION":98.581,"RA_OF_ASC_NODE":72.6738,"ARG_OF_PERICENTER":84.2187,"MEAN_ANOMALY":275.9132,"EPHEMERIS_TYPE":0,"CLASSIFICATION_TYPE":"U","NORAD_CAT_ID":32382,"ELEMENT_SET_NO":999,"REV_AT_EPOCH":95110,"BSTAR":0.00021392034,"MEAN_MOTION_DOT":5.08e-6,"MEAN_MOTION_DDOT":0},{"OBJECT_NAME":"CARTOSAT-2A","OBJECT_ID":"2008-021A","EPOCH":"2026-03-05T06:37:53.656608","MEAN_MOTION":14.79090115,"ECCENTRICITY":0.00132915,"INCLINATION":97.7785,"RA_OF_ASC_NODE":116.47,"ARG_OF_PERICENTER":89.3623,"MEAN_ANOMALY":270.9111,"EPHEMERIS_TYPE":0,"CLASSIFICATION_TYPE":"U","NORAD_CAT_ID":32783,"ELEMENT_SET_NO":999,"REV_AT_EPOCH":96344,"BSTAR":0.00011595486,"MEAN_MOTION_DOT":8.09e-6,"MEAN_MOTION_DDOT":0},{"OBJECT_NAME":"HUANJING 1A (HJ-1A)","OBJECT_ID":"2008-041A","EPOCH":"2026-03-05T06:02:21.657120","MEAN_MOTION":14.83703443,"ECCENTRICITY":0.00205011,"INCLINATION":97.6626,"RA_OF_ASC_NODE":54.1646,"ARG_OF_PERICENTER":117.2955,"MEAN_ANOMALY":243.035,"EPHEMERIS_TYPE":0,"CLASSIFICATION_TYPE":"U","NORAD_CAT_ID":33320,"ELEMENT_SET_NO":999,"REV_AT_EPOCH":94299,"BSTAR":0.00036973705,"MEAN_MOTION_DOT":3.016e-5,"MEAN_MOTION_DDOT":0},{"OBJECT_NAME":"HUANJING 1B (HJ-1B)","OBJECT_ID":"2008-041B","EPOCH":"2026-03-05T07:27:11.589984","MEAN_MOTION":14.83088759,"ECCENTRICITY":0.00366993,"INCLINATION":97.6471,"RA_OF_ASC_NODE":57.6965,"ARG_OF_PERICENTER":161.9838,"MEAN_ANOMALY":198.2687,"EPHEMERIS_TYPE":0,"CLASSIFICATION_TYPE":"U","NORAD_CAT_ID":33321,"ELEMENT_SET_NO":999,"REV_AT_EPOCH":94301,"BSTAR":0.00016993175,"MEAN_MOTION_DOT":1.348e-5,"MEAN_MOTION_DDOT":0},{"OBJECT_NAME":"GEOEYE 1","OBJECT_ID":"2008-042A","EPOCH":"2026-03-05T05:54:48.274848","MEAN_MOTION":14.64760852,"ECCENTRICITY":0.00042578,"INCLINATION":98.1213,"RA_OF_ASC_NODE":139.4914,"ARG_OF_PERICENTER":40.1999,"MEAN_ANOMALY":319.9518,"EPHEMERIS_TYPE":0,"CLASSIFICATION_TYPE":"U","NORAD_CAT_ID":33331,"ELEMENT_SET_NO":999,"REV_AT_EPOCH":93493,"BSTAR":0.00015328576,"MEAN_MOTION_DOT":7.69e-6,"MEAN_MOTION_DDOT":0},{"OBJECT_NAME":"THEOS","OBJECT_ID":"2008-049A","EPOCH":"2026-03-05T07:52:01.570944","MEAN_MOTION":14.20115997,"ECCENTRICITY":0.00010533,"INCLINATION":98.5712,"RA_OF_ASC_NODE":124.9253,"ARG_OF_PERICENTER":89.6695,"MEAN_ANOMALY":270.4603,"EPHEMERIS_TYPE":0,"CLASSIFICATION_TYPE":"U","NORAD_CAT_ID":33396,"ELEMENT_SET_NO":999,"REV_AT_EPOCH":90322,"BSTAR":1.0795598e-5,"MEAN_MOTION_DOT":-1.9e-7,"MEAN_MOTION_DDOT":0},{"OBJECT_NAME":"COSMO-SKYMED 3","OBJECT_ID":"2008-054A","EPOCH":"2026-03-05T06:26:50.800128","MEAN_MOTION":15.06197345,"ECCENTRICITY":0.00145941,"INCLINATION":97.8423,"RA_OF_ASC_NODE":281.0795,"ARG_OF_PERICENTER":258.6337,"MEAN_ANOMALY":101.325,"EPHEMERIS_TYPE":0,"CLASSIFICATION_TYPE":"U","NORAD_CAT_ID":33412,"ELEMENT_SET_NO":999,"REV_AT_EPOCH":94129,"BSTAR":0.00029496549,"MEAN_MOTION_DOT":4.266e-5,"MEAN_MOTION_DDOT":0},{"OBJECT_NAME":"YAOGAN-4","OBJECT_ID":"2008-061A","EPOCH":"2026-03-05T06:24:06.794784","MEAN_MOTION":14.8296223,"ECCENTRICITY":0.00155644,"INCLINATION":97.9246,"RA_OF_ASC_NODE":358.6019,"ARG_OF_PERICENTER":52.6056,"MEAN_ANOMALY":307.6572,"EPHEMERIS_TYPE":0,"CLASSIFICATION_TYPE":"U","NORAD_CAT_ID":33446,"ELEMENT_SET_NO":999,"REV_AT_EPOCH":93026,"BSTAR":0.00025020655,"MEAN_MOTION_DOT":1.982e-5,"MEAN_MOTION_DDOT":0},{"OBJECT_NAME":"GOSAT (IBUKI)","OBJECT_ID":"2009-002A","EPOCH":"2026-03-04T04:56:57.052032","MEAN_MOTION":14.67547057,"ECCENTRICITY":0.00013639,"INCLINATION":98.0769,"RA_OF_ASC_NODE":175.6761,"ARG_OF_PERICENTER":85.5243,"MEAN_ANOMALY":274.6117,"EPHEMERIS_TYPE":0,"CLASSIFICATION_TYPE":"U","NORAD_CAT_ID":33492,"ELEMENT_SET_NO":999,"REV_AT_EPOCH":91606,"BSTAR":8.7014865e-5,"MEAN_MOTION_DOT":4.46e-6,"MEAN_MOTION_DDOT":0},{"OBJECT_NAME":"DEIMOS-1","OBJECT_ID":"2009-041A","EPOCH":"2026-03-05T06:30:38.966112","MEAN_MOTION":14.75106385,"ECCENTRICITY":0.00020758,"INCLINATION":97.7244,"RA_OF_ASC_NODE":226.0834,"ARG_OF_PERICENTER":124.3332,"MEAN_ANOMALY":235.8074,"EPHEMERIS_TYPE":0,"CLASSIFICATION_TYPE":"U","NORAD_CAT_ID":35681,"ELEMENT_SET_NO":999,"REV_AT_EPOCH":89156,"BSTAR":0.00014287822,"MEAN_MOTION_DOT":9.16e-6,"MEAN_MOTION_DDOT":0},{"OBJECT_NAME":"DUBAISAT-1","OBJECT_ID":"2009-041B","EPOCH":"2026-03-05T07:10:31.664640","MEAN_MOTION":14.74891955,"ECCENTRICITY":0.00113252,"INCLINATION":97.9866,"RA_OF_ASC_NODE":198.8101,"ARG_OF_PERICENTER":49.4275,"MEAN_ANOMALY":310.7918,"EPHEMERIS_TYPE":0,"CLASSIFICATION_TYPE":"U","NORAD_CAT_ID":35682,"ELEMENT_SET_NO":999,"REV_AT_EPOCH":88978,"BSTAR":0.00026897964,"MEAN_MOTION_DOT":1.756e-5,"MEAN_MOTION_DDOT":0},{"OBJECT_NAME":"OCEANSAT-2","OBJECT_ID":"2009-051A","EPOCH":"2026-03-05T06:12:04.404384","MEAN_MOTION":13.99636222,"ECCENTRICITY":0.00170447,"INCLINATION":98.2273,"RA_OF_ASC_NODE":61.5163,"ARG_OF_PERICENTER":164.4026,"MEAN_ANOMALY":195.7669,"EPHEMERIS_TYPE":0,"CLASSIFICATION_TYPE":"U","NORAD_CAT_ID":35931,"ELEMENT_SET_NO":999,"REV_AT_EPOCH":86479,"BSTAR":8.2137761e-5,"MEAN_MOTION_DOT":8.3e-7,"MEAN_MOTION_DDOT":0}]
